start=new Date('2023-06-18T00:00:00.000Z').valueOf();
sats=[{"REF_FRAME":"TEME","PERIAPSIS":"558.147","DECAY_DATE":null,"RCS_SIZE":"LARGE","ELEMENT_SET_NO":"999","SEMIMAJOR_AXIS":"6937.269","OBJECT_ID":"2023-013C","RA_OF_ASC_NODE":"311.8481","EPHEMERIS_TYPE":"0","MEAN_MOTION_DDOT":"0.0000000000000","LAUNCH_DATE":"2023-01-26","COUNTRY_CODE":"US","GP_ID":"234174127","TIME_SYSTEM":"UTC","OBJECT_NAME":"STARLINK-5493","TLE_LINE1":"1 55333U 23013C   23168.83895048 -.00002635  00000-0 -18016-3 0  9990","ARG_OF_PERICENTER":"267.1507","MEAN_MOTION_DOT":"-0.00002635","TLE_LINE2":"2 55333  43.0040 311.8481 0001424 267.1507  92.9173 15.02518827 21909","OBJECT_TYPE":"PAYLOAD","BSTAR":"-0.00018016000000","NORAD_CAT_ID":"55333","PERIOD":"95.839","APOAPSIS":"560.122","EPOCH":"2023-06-17T20:08:05.321472","CENTER_NAME":"EARTH","FILE":"3935891","INCLINATION":"43.0040","REV_AT_EPOCH":"2190","CLASSIFICATION_TYPE":"U","MEAN_ANOMALY":"92.9173","MEAN_MOTION":"15.02518827","SITE":"AFETR","MEAN_ELEMENT_THEORY":"SGP4","ECCENTRICITY":"0.00014240"},{"DECAY_DATE":null,"RCS_SIZE":"LARGE","ELEMENT_SET_NO":"999","SEMIMAJOR_AXIS":"6939.738","OBJECT_ID":"2023-013D","RA_OF_ASC_NODE":"308.1591","REF_FRAME":"TEME","PERIAPSIS":"560.566","TIME_SYSTEM":"UTC","OBJECT_NAME":"STARLINK-5652","TLE_LINE1":"1 55334U 23013D   23168.80836625 -.00001120  00000-0 -69460-4 0  9992","EPHEMERIS_TYPE":"0","MEAN_MOTION_DDOT":"0.0000000000000","LAUNCH_DATE":"2023-01-26","COUNTRY_CODE":"US","GP_ID":"234174377","PERIOD":"95.890","ARG_OF_PERICENTER":"273.3908","TLE_LINE2":"2 55334  43.0043 308.1591 0001495 273.3908  86.6763 15.01717143 21946","MEAN_MOTION_DOT":"-0.00001120","OBJECT_TYPE":"PAYLOAD","BSTAR":"-0.00006946000000","NORAD_CAT_ID":"55334","MEAN_MOTION":"15.01717143","SITE":"AFETR","MEAN_ELEMENT_THEORY":"SGP4","ECCENTRICITY":"0.00014950","APOAPSIS":"562.641","CENTER_NAME":"EARTH","EPOCH":"2023-06-17T19:24:02.844000","FILE":"3935891","INCLINATION":"43.0043","REV_AT_EPOCH":"2194","MEAN_ANOMALY":"86.6763","CLASSIFICATION_TYPE":"U"},{"ECCENTRICITY":"0.00013810","SITE":"AFETR","MEAN_MOTION":"15.02527655","MEAN_ELEMENT_THEORY":"SGP4","REV_AT_EPOCH":"2190","MEAN_ANOMALY":"93.6417","CLASSIFICATION_TYPE":"U","APOAPSIS":"560.065","INCLINATION":"43.0032","FILE":"3935891","EPOCH":"2023-06-17T20:04:52.400640","CENTER_NAME":"EARTH","PERIOD":"95.839","OBJECT_TYPE":"PAYLOAD","NORAD_CAT_ID":"55335","BSTAR":"-0.00008157800000","ARG_OF_PERICENTER":"266.4268","TLE_LINE2":"2 55335  43.0032 311.8308 0001381 266.4268  93.6417 15.02527655 21906","MEAN_MOTION_DOT":"-0.00001305","TLE_LINE1":"1 55335U 23013E   23168.83671760 -.00001305  00000-0 -81578-4 0  9992","TIME_SYSTEM":"UTC","OBJECT_NAME":"STARLINK-5660","COUNTRY_CODE":"US","GP_ID":"234175129","MEAN_MOTION_DDOT":"0.0000000000000","EPHEMERIS_TYPE":"0","LAUNCH_DATE":"2023-01-26","OBJECT_ID":"2023-013E","RA_OF_ASC_NODE":"311.8308","SEMIMAJOR_AXIS":"6937.242","RCS_SIZE":"LARGE","DECAY_DATE":null,"ELEMENT_SET_NO":"999","PERIAPSIS":"558.149","REF_FRAME":"TEME"},{"COUNTRY_CODE":"US","GP_ID":"234140787","EPHEMERIS_TYPE":"0","MEAN_MOTION_DDOT":"0.0000000000000","LAUNCH_DATE":"2023-01-26","TLE_LINE1":"1 55336U 23013F   23168.41195793 -.00001675  00000-0 -11148-3 0  9999","TIME_SYSTEM":"UTC","OBJECT_NAME":"STARLINK-5655","PERIAPSIS":"560.954","REF_FRAME":"TEME","SEMIMAJOR_AXIS":"6939.745","OBJECT_ID":"2023-013F","RA_OF_ASC_NODE":"299.8633","DECAY_DATE":null,"RCS_SIZE":"LARGE","ELEMENT_SET_NO":"999","REV_AT_EPOCH":"2200","CLASSIFICATION_TYPE":"U","MEAN_ANOMALY":"94.0821","APOAPSIS":"562.267","CENTER_NAME":"EARTH","EPOCH":"2023-06-17T09:53:13.165152","INCLINATION":"43.0006","FILE":"3935591","ECCENTRICITY":"0.00009460","MEAN_MOTION":"15.01714804","SITE":"AFETR","MEAN_ELEMENT_THEORY":"SGP4","OBJECT_TYPE":"PAYLOAD","BSTAR":"-0.00011148000000","NORAD_CAT_ID":"55336","ARG_OF_PERICENTER":"265.9913","MEAN_MOTION_DOT":"-0.00001675","TLE_LINE2":"2 55336  43.0006 299.8633 0000946 265.9913  94.0821 15.01714804 22000","PERIOD":"95.890"},{"REF_FRAME":"TEME","PERIAPSIS":"558.102","ELEMENT_SET_NO":"999","DECAY_DATE":null,"RCS_SIZE":"LARGE","SEMIMAJOR_AXIS":"6937.244","RA_OF_ASC_NODE":"299.3353","OBJECT_ID":"2023-013G","LAUNCH_DATE":"2023-01-26","EPHEMERIS_TYPE":"0","MEAN_MOTION_DDOT":"0.0000000000000","GP_ID":"234173628","COUNTRY_CODE":"US","OBJECT_NAME":"STARLINK-5667","TIME_SYSTEM":"UTC","TLE_LINE1":"1 55337U 23013G   23168.68181312 -.00000248  00000-0 -32825-5 0  9993","TLE_LINE2":"2 55337  43.0029 299.3353 0001451 268.1764  91.8913 15.02527159 22037","MEAN_MOTION_DOT":"-0.00000248","ARG_OF_PERICENTER":"268.1764","BSTAR":"-0.00000328250000","NORAD_CAT_ID":"55337","OBJECT_TYPE":"PAYLOAD","PERIOD":"95.839","CENTER_NAME":"EARTH","EPOCH":"2023-06-17T16:21:48.653568","INCLINATION":"43.0029","FILE":"3935891","APOAPSIS":"560.115","CLASSIFICATION_TYPE":"U","MEAN_ANOMALY":"91.8913","REV_AT_EPOCH":"2203","MEAN_ELEMENT_THEORY":"SGP4","MEAN_MOTION":"15.02527159","SITE":"AFETR","ECCENTRICITY":"0.00014510"},{"ELEMENT_SET_NO":"999","RCS_SIZE":"LARGE","DECAY_DATE":null,"RA_OF_ASC_NODE":"311.8064","OBJECT_ID":"2023-013H","SEMIMAJOR_AXIS":"6937.239","REF_FRAME":"TEME","PERIAPSIS":"558.192","OBJECT_NAME":"STARLINK-5658","TIME_SYSTEM":"UTC","TLE_LINE1":"1 55338U 23013H   23168.83338735 -.00001202  00000-0 -73970-4 0  9990","LAUNCH_DATE":"2023-01-26","MEAN_MOTION_DDOT":"0.0000000000000","EPHEMERIS_TYPE":"0","GP_ID":"234173878","COUNTRY_CODE":"US","PERIOD":"95.838","MEAN_MOTION_DOT":"-0.00001202","TLE_LINE2":"2 55338  43.0041 311.8064 0001315 267.3681  92.7011 15.02528575 21906","ARG_OF_PERICENTER":"267.3681","NORAD_CAT_ID":"55338","BSTAR":"-0.00007397000000","OBJECT_TYPE":"PAYLOAD","MEAN_ELEMENT_THEORY":"SGP4","SITE":"AFETR","MEAN_MOTION":"15.02528575","ECCENTRICITY":"0.00013150","FILE":"3935891","INCLINATION":"43.0041","EPOCH":"2023-06-17T20:00:04.667040","CENTER_NAME":"EARTH","APOAPSIS":"560.017","MEAN_ANOMALY":"92.7011","CLASSIFICATION_TYPE":"U","REV_AT_EPOCH":"2190"},{"PERIOD":"95.839","ARG_OF_PERICENTER":"263.0753","MEAN_MOTION_DOT":"-0.00000982","TLE_LINE2":"2 55339  43.0047 312.4845 0001695 263.0753  96.9896 15.02524251 21882","OBJECT_TYPE":"PAYLOAD","BSTAR":"-0.00005763500000","NORAD_CAT_ID":"55339","SITE":"AFETR","MEAN_MOTION":"15.02524251","MEAN_ELEMENT_THEORY":"SGP4","ECCENTRICITY":"0.00016950","APOAPSIS":"560.294","EPOCH":"2023-06-17T16:40:37.852320","CENTER_NAME":"EARTH","FILE":"3935891","INCLINATION":"43.0047","REV_AT_EPOCH":"2188","MEAN_ANOMALY":"96.9896","CLASSIFICATION_TYPE":"U","DECAY_DATE":null,"RCS_SIZE":"LARGE","ELEMENT_SET_NO":"999","SEMIMAJOR_AXIS":"6937.253","OBJECT_ID":"2023-013J","RA_OF_ASC_NODE":"312.4845","REF_FRAME":"TEME","PERIAPSIS":"557.942","TIME_SYSTEM":"UTC","OBJECT_NAME":"STARLINK-5671","TLE_LINE1":"1 55339U 23013J   23168.69488255 -.00000982  00000-0 -57635-4 0  9992","EPHEMERIS_TYPE":"0","MEAN_MOTION_DDOT":"0.0000000000000","LAUNCH_DATE":"2023-01-26","COUNTRY_CODE":"US","GP_ID":"234174630"},{"ARG_OF_PERICENTER":"270.9304","MEAN_MOTION_DOT":"-0.00001508","TLE_LINE2":"2 55340  43.0047 311.7460 0001475 270.9304  89.1369 15.02525271 21909","OBJECT_TYPE":"PAYLOAD","BSTAR":"-0.00009660800000","NORAD_CAT_ID":"55340","PERIOD":"95.839","APOAPSIS":"560.138","CENTER_NAME":"EARTH","EPOCH":"2023-06-17T19:48:53.681184","INCLINATION":"43.0047","FILE":"3935891","REV_AT_EPOCH":"2190","MEAN_ANOMALY":"89.1369","CLASSIFICATION_TYPE":"U","SITE":"AFETR","MEAN_MOTION":"15.02525271","MEAN_ELEMENT_THEORY":"SGP4","ECCENTRICITY":"0.00014750","REF_FRAME":"TEME","PERIAPSIS":"558.091","DECAY_DATE":null,"RCS_SIZE":"LARGE","ELEMENT_SET_NO":"999","SEMIMAJOR_AXIS":"6937.250","OBJECT_ID":"2023-013K","RA_OF_ASC_NODE":"311.7460","EPHEMERIS_TYPE":"0","MEAN_MOTION_DDOT":"0.0000000000000","LAUNCH_DATE":"2023-01-26","COUNTRY_CODE":"US","GP_ID":"234175380","TIME_SYSTEM":"UTC","OBJECT_NAME":"STARLINK-5675","TLE_LINE1":"1 55340U 23013K   23168.82562131 -.00001508  00000-0 -96608-4 0  9993"},{"ECCENTRICITY":"0.00014180","MEAN_ELEMENT_THEORY":"SGP4","MEAN_MOTION":"15.02524951","SITE":"AFETR","MEAN_ANOMALY":"98.1274","CLASSIFICATION_TYPE":"U","REV_AT_EPOCH":"2190","FILE":"3935891","INCLINATION":"43.0044","EPOCH":"2023-06-17T19:56:53.053440","CENTER_NAME":"EARTH","APOAPSIS":"560.099","PERIOD":"95.839","NORAD_CAT_ID":"55341","BSTAR":"-0.00007686800000","OBJECT_TYPE":"PAYLOAD","TLE_LINE2":"2 55341  43.0044 311.7892 0001418 261.9408  98.1274 15.02524951 21907","MEAN_MOTION_DOT":"-0.00001242","ARG_OF_PERICENTER":"261.9408","TLE_LINE1":"1 55341U 23013L   23168.83116960 -.00001242  00000-0 -76868-4 0  9991","OBJECT_NAME":"STARLINK-5670","TIME_SYSTEM":"UTC","GP_ID":"234174128","COUNTRY_CODE":"US","LAUNCH_DATE":"2023-01-26","MEAN_MOTION_DDOT":"0.0000000000000","EPHEMERIS_TYPE":"0","OBJECT_ID":"2023-013L","RA_OF_ASC_NODE":"311.7892","SEMIMAJOR_AXIS":"6937.251","ELEMENT_SET_NO":"999","RCS_SIZE":"LARGE","DECAY_DATE":null,"PERIAPSIS":"558.132","REF_FRAME":"TEME"},{"COUNTRY_CODE":"US","GP_ID":"234174378","EPHEMERIS_TYPE":"0","MEAN_MOTION_DDOT":"0.0000000000000","LAUNCH_DATE":"2023-01-26","TLE_LINE1":"1 55342U 23013M   23168.75803368 -.00001318  00000-0 -82508-4 0  9990","TIME_SYSTEM":"UTC","OBJECT_NAME":"STARLINK-5657","PERIAPSIS":"558.112","REF_FRAME":"TEME","SEMIMAJOR_AXIS":"6937.258","OBJECT_ID":"2023-013M","RA_OF_ASC_NODE":"312.1031","DECAY_DATE":null,"RCS_SIZE":"LARGE","ELEMENT_SET_NO":"999","REV_AT_EPOCH":"2189","MEAN_ANOMALY":"89.6278","CLASSIFICATION_TYPE":"U","APOAPSIS":"560.133","CENTER_NAME":"EARTH","EPOCH":"2023-06-17T18:11:34.109952","FILE":"3935891","INCLINATION":"43.0044","ECCENTRICITY":"0.00014560","SITE":"AFETR","MEAN_MOTION":"15.02522676","MEAN_ELEMENT_THEORY":"SGP4","OBJECT_TYPE":"PAYLOAD","BSTAR":"-0.00008250800000","NORAD_CAT_ID":"55342","ARG_OF_PERICENTER":"270.4397","MEAN_MOTION_DOT":"-0.00001318","TLE_LINE2":"2 55342  43.0044 312.1031 0001456 270.4397  89.6278 15.02522676 21891","PERIOD":"95.839"}];
